ONEWEB-0116             
1 48046U 21025E   24262.51163663  .00000341  00000+0  90001-3 0  9999
2 48046  87.8854  86.8864 0001573  92.5310 267.5999 13.13467881170074
ONEWEB-0150             
1 48047U 21025F   24262.48624716  .00000020  00000+0  19818-4 0  9999
2 48047  87.8846  86.9047 0001769  83.8362 276.2968 13.13469361169961
ONEWEB-0107             
1 48048U 21025G   24262.48784352 -.00000727  00000+0 -20265-2 0  9995
2 48048  87.8844  86.9022 0001955  82.0043 278.1308 13.13463239169942
ONEWEB-0101             
1 48049U 21025H   24262.52750039  .00000116  00000+0  28141-3 0  9998
2 48049  87.8853  86.9163 0001802  89.9171 270.2165 13.13466552169921
ONEWEB-0113             
1 48050U 21025J   24262.50528432  .00000294  00000+0  76992-3 0  9992
2 48050  87.8850  86.9017 0001641  91.7061 268.4256 13.13468974170009
ONEWEB-0112             
1 48051U 21025K   24262.56877820 -.00000210  00000+0 -61111-3 0  9994
2 48051  87.8852  86.8824 0001477  87.2867 272.8431 13.13463005170024
ONEWEB-0156             
1 48052U 21025L   24262.50211818  .00000362  00000+0  95578-3 0  9998
2 48052  87.8850  86.8978 0001721  87.9277 272.2049 13.13468166169993
ONEWEB-0161             
1 48053U 21025M   24262.47513623 -.00000229  00000+0 -66158-3 0  9990
2 48053  87.8853  86.9125 0001920  88.2895 271.8454 13.13468750169920
